ONEWEB-0414             
1 50491U 21132Y   25140.13031003  .00000093  00000+0  20430-3 0  9994
2 50491  87.9151  53.5533 0001909  71.7560 288.3780 13.18684309171111
ONEWEB-0417             
1 50492U 21132Z   25139.45533181  .00000058  00000+0  11490-3 0  9999
2 50492  87.9162  53.7140 0002140  77.3089 282.8282 13.18684959169716
ONEWEB-0418             
1 50493U 21132AA  25139.84406501  .00000126  00000+0  28715-3 0  9992
2 50493  87.9156  53.6264 0002306  75.5133 284.6255 13.18685302171109
ONEWEB-0419             
1 50494U 21132AB  25139.48220111 -.00000191  00000+0 -51767-3 0  9991
2 50494  87.9151  53.7033 0002281  83.8406 276.2985 13.18685328169693
ONEWEB-0420             
1 50495U 21132AC  25139.52487792  .00000022  00000+0  21926-4 0  9993
2 50495  87.9150  53.7040 0001694  81.7222 278.4102 13.18684219169694
ONEWEB-0421             
1 50496U 21132AD  25139.82206346 -.00000221  00000+0 -59311-3 0  9992
2 50496  87.9156  53.6357 0001895  69.6261 290.5074 13.18685917171076
ONEWEB-0424             
1 50497U 21132AE  25140.16035042  .00000056  00000+0  10862-3 0  9997
2 50497  87.9158  53.5593 0002225  88.6993 271.4394 13.18685310171127
ONEWEB-0426             
1 50498U 21132AF  25139.51539436 -.00000039  00000+0 -13122-3 0  9996
2 50498  87.9144  53.6906 0002358  61.8838 298.2532 13.18683973169705
